0 SL-12 R/B(2)
1 21129U 91010F   13282.75995618 -.00000237  00000-0  10000-3 0  3409
2 21129 013.8154 024.5544 0019986 100.4594 259.7661 01.00104158 83286
0 SL-12 R/B(2)
1 21129U 91010F   13282.76000316  .00000000  00000-0  10000-3 0  3421
2 21129 013.8154 024.5515 0019668 100.7706 259.4544 01.00099456 83280
0 SL-12 R/B(2)
1 21129U 91010F   13283.75890377 -.00000234  00000-0  10000-3 0  3414
2 21129 013.8163 024.5442 0020255 098.9966 261.2334 01.00103720 83298
0 SL-12 R/B(2)
1 21129U 91010F   13287.75458486 -.00000217  00000-0  10000-3 0  3421
2 21129 013.8214 024.5017 0020267 100.2698 259.9142 01.00101213 83336
0 SL-12 R/B(2)
1 21129U 91010F   13292.74938094 -.00000186  00000-0  10000-3 0  3430
2 21129 013.8271 024.4463 0020227 100.3384 259.8636 01.00100254 83388
0 SL-12 R/B(2)
1 21129U 91010F   13293.74832686 -.00000179  00000-0  10000-3 0  3444
2 21129 013.8282 024.4356 0020073 100.6296 259.5730 01.00100206 83395
0 SL-12 R/B(2)
1 21129U 91010F   13294.74725702 -.00000172  00000-0  10000-3 0  3459
2 21129 013.8297 024.4251 0020142 101.0556 259.1449 01.00100192 83405
